{
  "type": "FeatureCollection",
  "_note": "PLACEHOLDER SAMPLE — replace with the full digitised Atlas of the World's Languages (Asher & Moseley) from github.com/jakejing/world-language-map-asher, saved at this same path (data/asher_languages.geojson). These 6 coarse polygons exist only so the 'World languages' layer is demonstrably wired (fill + line + hover Language/Family). The loader reads Language from name/Language and Family from family/Family, so the real dataset drops in with no code change.",
  "features": [
    { "type": "Feature", "properties": { "Language": "Japanese", "Family": "Japonic", "_sample": true },
      "geometry": { "type": "Polygon", "coordinates": [[[129.5,31.0],[142.0,31.0],[146.0,43.5],[140.0,45.6],[133.0,35.5],[129.5,33.5],[129.5,31.0]]] } },
    { "type": "Feature", "properties": { "Language": "Korean", "Family": "Koreanic", "_sample": true },
      "geometry": { "type": "Polygon", "coordinates": [[[124.6,34.4],[129.6,35.0],[130.7,38.6],[127.5,43.0],[124.4,40.0],[124.6,34.4]]] } },
    { "type": "Feature", "properties": { "Language": "Mongolian", "Family": "Mongolic", "_sample": true },
      "geometry": { "type": "Polygon", "coordinates": [[[88.0,43.0],[120.0,42.0],[120.0,52.0],[97.0,52.0],[88.0,49.0],[88.0,43.0]]] } },
    { "type": "Feature", "properties": { "Language": "Turkic (Central Asian)", "Family": "Turkic", "_sample": true },
      "geometry": { "type": "Polygon", "coordinates": [[[52.0,37.0],[80.0,40.0],[80.0,48.0],[58.0,47.0],[52.0,44.0],[52.0,37.0]]] } },
    { "type": "Feature", "properties": { "Language": "Hindi–Urdu", "Family": "Indo-European (Indo-Aryan)", "_sample": true },
      "geometry": { "type": "Polygon", "coordinates": [[[68.5,22.0],[88.0,22.0],[88.5,31.0],[74.0,32.5],[68.5,25.0],[68.5,22.0]]] } },
    { "type": "Feature", "properties": { "Language": "Swahili / Bantu", "Family": "Niger–Congo (Bantu)", "_sample": true },
      "geometry": { "type": "Polygon", "coordinates": [[[12.0,1.5],[40.5,1.5],[34.0,-28.0],[18.0,-22.0],[12.0,-6.0],[12.0,1.5]]] } }
  ]
}
